{
    "links": {
        "self": "http://www.neowsapp.com/rest/v1/neo/54054456?api_key=iIulBulltgU6a56xZRHN4H3l9WmuAYTsLGpBGhQ2"
    },
    "id": "54054456",
    "neo_reference_id": "54054456",
    "name": "(2020 SX)",
    "designation": "2020 SX",
    "nasa_jpl_url": "http://ssd.jpl.nasa.gov/sbdb.cgi?sstr=54054456",
    "absolute_magnitude_h": 23.396,
    "estimated_diameter": {
        "kilometers": {
            "estimated_diameter_min": 0.0556358819,
            "estimated_diameter_max": 0.1244056139
        },
        "meters": {
            "estimated_diameter_min": 55.6358819056,
            "estimated_diameter_max": 124.4056139291
        },
        "miles": {
            "estimated_diameter_min": 0.0345705236,
            "estimated_diameter_max": 0.0773020407
        },
        "feet": {
            "estimated_diameter_min": 182.5324267913,
            "estimated_diameter_max": 408.1549144033
        }
    },
    "is_potentially_hazardous_asteroid": false,
    "close_approach_data": [
        {
            "close_approach_date": "2016-08-17",
            "close_approach_date_full": "2016-Aug-17 14:18",
            "epoch_date_close_approach": 1471443480000,
            "relative_velocity": {
                "kilometers_per_second": "3.3870193282",
                "kilometers_per_hour": "12193.2695816644",
                "miles_per_hour": "7576.4235353403"
            },
            "miss_distance": {
                "astronomical": "0.3225906709",
                "lunar": "125.4877709801",
                "kilometers": "48258877.248510983",
                "miles": "29986675.8215902454"
            },
            "orbiting_body": "Earth"
        },
        {
            "close_approach_date": "2020-08-25",
            "close_approach_date_full": "2020-Aug-25 15:36",
            "epoch_date_close_approach": 1598369760000,
            "relative_velocity": {
                "kilometers_per_second": "3.1490414847",
                "kilometers_per_hour": "11336.5493448157",
                "miles_per_hour": "7044.0908970606"
            },
            "miss_distance": {
                "astronomical": "0.262794883",
                "lunar": "102.227209487",
                "kilometers": "39313554.74369921",
                "miles": "24428310.161940698"
            },
            "orbiting_body": "Earth"
        },
        {
            "close_approach_date": "2024-09-04",
            "close_approach_date_full": "2024-Sep-04 04:34",
            "epoch_date_close_approach": 1725424440000,
            "relative_velocity": {
                "kilometers_per_second": "3.4461940158",
                "kilometers_per_hour": "12406.2984569611",
                "miles_per_hour": "7708.7913939934"
            },
            "miss_distance": {
                "astronomical": "0.3688126958",
                "lunar": "143.4681386662",
                "kilometers": "55173593.720637946",
                "miles": "34283281.4011218148"
            },
            "orbiting_body": "Earth"
        },
        {
            "close_approach_date": "2192-08-27",
            "close_approach_date_full": "2192-Aug-27 13:00",
            "epoch_date_close_approach": 7026354000000,
            "relative_velocity": {
                "kilometers_per_second": "5.9375818935",
                "kilometers_per_hour": "21375.2948166907",
                "miles_per_hour": "13281.7769376265"
            },
            "miss_distance": {
                "astronomical": "0.3117012142",
                "lunar": "121.2517723238",
                "kilometers": "46629837.720733754",
                "miles": "28974437.5971396452"
            },
            "orbiting_body": "Earth"
        },
        {
            "close_approach_date": "2196-08-28",
            "close_approach_date_full": "2196-Aug-28 00:57",
            "epoch_date_close_approach": 7152627420000,
            "relative_velocity": {
                "kilometers_per_second": "6.7212170697",
                "kilometers_per_hour": "24196.3814509023",
                "miles_per_hour": "15034.6904632009"
            },
            "miss_distance": {
                "astronomical": "0.4089399511",
                "lunar": "159.0776409779",
                "kilometers": "61176545.642464157",
                "miles": "38013342.7601010866"
            },
            "orbiting_body": "Earth"
        }
    ],
    "orbital_data": {
        "orbit_id": "3",
        "orbit_determination_date": "2020-10-02 06:44:00",
        "first_observation_date": "2020-09-06",
        "last_observation_date": "2020-09-25",
        "data_arc_in_days": 19,
        "observations_used": 22,
        "orbit_uncertainty": "7",
        "minimum_orbit_intersection": ".258081",
        "jupiter_tisserand_invariant": "3.277",
        "epoch_osculation": "2459000.5",
        "eccentricity": ".4985629708052561",
        "semi_major_axis": "2.504504937539396",
        "inclination": "4.046814916918144",
        "ascending_node_longitude": "249.5314785270373",
        "orbital_period": "1447.708969689897",
        "perihelion_distance": "1.255851515483322",
        "perihelion_argument": "84.05777908147276",
        "aphelion_distance": "3.753158359595469",
        "perihelion_time": "2459085.266325778141",
        "mean_anomaly": "338.9212625472181",
        "mean_motion": ".248668763914002",
        "equinox": "J2000",
        "orbit_class": {
            "orbit_class_type": "AMO",
            "orbit_class_description": "Near-Earth asteroid orbits similar to that of 1221 Amor",
            "orbit_class_range": "1.017 AU < q (perihelion) < 1.3 AU"
        }
    },
    "is_sentry_object": false
}